[Satellite]
VERSION=1.1
NAME=MOLNIYA 2-9
NICKNAME=MOLNIYA 2-9
TLE1=1 07276U 74026A   19316.19791280 -.00000037  00000-0 -28885-3 0  9994
TLE2=2 07276  63.8062  17.3043 6841915 288.9968  12.2866  2.45096643226117
STATUS=0
